[{"OBJECT_NAME":"PRAETORIAN SDA_619","OBJECT_ID":"2025-203T","EPOCH":"2026-03-09T14:29:57.164640","MEAN_MOTION":13.83929489,"ECCENTRICITY":0.0009419,"INCLINATION":81.3013,"RA_OF_ASC_NODE":102.9558,"ARG_OF_PERICENTER":101.1337,"MEAN_ANOMALY":259.0878,"EPHEMERIS_TYPE":0,"CLASSIFICATION_TYPE":"U","NORAD_CAT_ID":65582,"ELEMENT_SET_NO":999,"REV_AT_EPOCH":2555,"BSTAR":0.00020555,"MEAN_MOTION_DOT":2.4e-6,"MEAN_MOTION_DDOT":0},{"OBJECT_NAME":"FENGYUN 1C DEB","OBJECT_ID":"1999-025QG","EPOCH":"2026-03-09T23:49:19.054560","MEAN_MOTION":14.0084595,"ECCENTRICITY":0.00867949,"INCLINATION":99.013,"RA_OF_ASC_NODE":128.4754,"ARG_OF_PERICENTER":59.1883,"MEAN_ANOMALY":60.9717,"EPHEMERIS_TYPE":0,"CLASSIFICATION_TYPE":"U","NORAD_CAT_ID":30079,"ELEMENT_SET_NO":999,"REV_AT_EPOCH":97759,"BSTAR":0.00018113934,"MEAN_MOTION_DOT":2.36e-6,"MEAN_MOTION_DDOT":0}]
